{"type": "FeatureCollection", "features": [ {"type": "Feature", "properties": {"norad_id": 59598, "name": "GSAT0225 (GALILEO 29)", "group": "gnss", "lat": 54.76445706085139, "lon": -156.05904898824116, "alt_km": 23214.89199242605, "timestamp": "2025-12-14T18:52:55.747416+00:00", "meta": {"OBJECT_NAME": "GSAT0225 (GALILEO 29)", "OBJECT_ID": "2024-079A", "EPOCH": "2025-12-10T12:47:07.958400", "MEAN_MOTION": 1.70474727, "ECCENTRICITY": 0.00020453, "INCLINATION": 55.0006, "RA_OF_ASC_NODE": 106.3566, "ARG_OF_PERICENTER": 176.2356, "MEAN_ANOMALY": 187.363, "EPHEMERIS_TYPE": 0, "CLASSIFICATION_TYPE": "U", "NORAD_CAT_ID": 59598, "ELEMENT_SET_NO": 999, "REV_AT_EPOCH": 1010, "BSTAR": 0, "MEAN_MOTION_DOT": 1e-07, "MEAN_MOTION_DDOT": 0}, "tle": {"line1": "1 59598U 24079A   25344.53273100  .00000010  00000+0  00000+0 0  9996", "line2": "2 59598  55.0006 106.3566 0002045 176.2356 187.3630  1.70474727 10101"}}, "geometry": {"type": "Point", "coordinates": [-156.05904898824116, 54.76445706085139]}}, {"type": "Feature", "properties": {"norad_id": 59600, "name": "GSAT0227 (GALILEO 30)", "group": "gnss", "lat": -14.762987399568361, "lon": 95.59234177193002, "alt_km": 23230.72725563649, "timestamp": "2025-12-14T18:52:55.747427+00:00", "meta": {"OBJECT_NAME": "GSAT0227 (GALILEO 30)", "OBJECT_ID": "2024-079C", "EPOCH": "2025-12-08T22:48:42.234912", "MEAN_MOTION": 1.70474719, "ECCENTRICITY": 0.0003262, "INCLINATION": 54.9946, "RA_OF_ASC_NODE": 106.4003, "ARG_OF_PERICENTER": 114.182, "MEAN_ANOMALY": 245.816, "EPHEMERIS_TYPE": 0, "CLASSIFICATION_TYPE": "U", "NORAD_CAT_ID": 59600, "ELEMENT_SET_NO": 999, "REV_AT_EPOCH": 1012, "BSTAR": 0, "MEAN_MOTION_DOT": 9e-08, "MEAN_MOTION_DDOT": 0}, "tle": {"line1": "1 59600U 24079C   25342.95048883  .00000009  00000+0  00000+0 0  9990", "line2": "2 59600  54.9946 106.4003 0003262 114.1820 245.8160  1.70474719 10123"}}, "geometry": {"type": "Point", "coordinates": [95.59234177193002, -14.762987399568361]}}, {"type": "Feature", "properties": {"norad_id": 61182, "name": "GSAT0232 (GALILEO 32)", "group": "gnss", "lat": 3.0042390830304346, "lon": 44.29530348648503, "alt_km": 23217.415473898054, "timestamp": "2025-12-14T18:52:55.747438+00:00", "meta": {"OBJECT_NAME": "GSAT0232 (GALILEO 32)", "OBJECT_ID": "2024-167A", "EPOCH": "2025-12-12T10:51:18.741600", "MEAN_MOTION": 1.70473504, "ECCENTRICITY": 0.00019431, "INCLINATION": 55.2408, "RA_OF_ASC_NODE": 226.4386, "ARG_OF_PERICENTER": 211.6313, "MEAN_ANOMALY": 332.0573, "EPHEMERIS_TYPE": 0, "CLASSIFICATION_TYPE": "U", "NORAD_CAT_ID": 61182, "ELEMENT_SET_NO": 999, "REV_AT_EPOCH": 769, "BSTAR": 0, "MEAN_MOTION_DOT": 1.6e-07, "MEAN_MOTION_DDOT": 0}, "tle": {"line1": "1 61182U 24167A   25346.45230025  .00000016  00000+0  00000+0 0  9994", "line2": "2 61182  55.2408 226.4386 0001943 211.6313 332.0573  1.70473504  7695"}}, "geometry": {"type": "Point", "coordinates": [44.29530348648503, 3.0042390830304346]}}, {"type": "Feature", "properties": {"norad_id": 61183, "name": "GSAT0226 (GALILEO 31)", "group": "gnss", "lat": -50.981184390795065, "lon": 167.49692738126353, "alt_km": 23230.341575678955, "timestamp": "2025-12-14T18:52:55.747451+00:00", "meta": {"OBJECT_NAME": "GSAT0226 (GALILEO 31)", "OBJECT_ID": "2024-167B", "EPOCH": "2025-12-12T20:26:08.685024", "MEAN_MOTION": 1.70473602, "ECCENTRICITY": 8.42e-05, "INCLINATION": 55.2391, "RA_OF_ASC_NODE": 226.433, "ARG_OF_PERICENTER": 113.0334, "MEAN_ANOMALY": 68.3038, "EPHEMERIS_TYPE": 0, "CLASSIFICATION_TYPE": "U", "NORAD_CAT_ID": 61183, "ELEMENT_SET_NO": 999, "REV_AT_EPOCH": 767, "BSTAR": 0, "MEAN_MOTION_DOT": 1.9e-07, "MEAN_MOTION_DDOT": 0}, "tle": {"line1": "1 61183U 24167B   25346.85148941  .00000019  00000+0  00000+0 0  9997", "line2": "2 61183  55.2391 226.4330 0000842 113.0334  68.3038  1.70473602  7673"}}, "geometry": {"type": "Point", "coordinates": [167.49692738126353, -50.981184390795065]}}, {"type": "Feature", "properties": {"norad_id": 61186, "name": "BEIDOU-3 M25 (C47)", "group": "gnss", "lat": 21.97796605661449, "lon": -34.72920245607051, "alt_km": 21525.331969517658, "timestamp": "2025-12-14T18:52:55.747462+00:00", "meta": {"OBJECT_NAME": "BEIDOU-3 M25 (C47)", "OBJECT_ID": "2024-168B", "EPOCH": "2025-12-13T09:51:38.613312", "MEAN_MOTION": 1.86230198, "ECCENTRICITY": 0.00054273, "INCLINATION": 54.6413, "RA_OF_ASC_NODE": 308.6962, "ARG_OF_PERICENTER": 297.8799, "MEAN_ANOMALY": 246.8955, "EPHEMERIS_TYPE": 0, "CLASSIFICATION_TYPE": "U", "NORAD_CAT_ID": 61186, "ELEMENT_SET_NO": 999, "REV_AT_EPOCH": 832, "BSTAR": 0, "MEAN_MOTION_DOT": -9.7e-07, "MEAN_MOTION_DDOT": 0}, "tle": {"line1": "1 61186U 24168B   25347.41086358 -.00000097  00000+0  00000+0 0  9994", "line2": "2 61186  54.6413 308.6962 0005427 297.8799 246.8955  1.86230198  8320"}}, "geometry": {"type": "Point", "coordinates": [-34.72920245607051, 21.97796605661449]}}, {"type": "Feature", "properties": {"norad_id": 61187, "name": "BEIDOU-3 M27 (C49)", "group": "gnss", "lat": 14.402674415939021, "lon": 118.11072175937802, "alt_km": 21533.144473054035, "timestamp": "2025-12-14T18:52:55.747473+00:00", "meta": {"OBJECT_NAME": "BEIDOU-3 M27 (C49)", "OBJECT_ID": "2024-168C", "EPOCH": "2025-12-13T04:47:06.571968", "MEAN_MOTION": 1.86230336, "ECCENTRICITY": 0.00023989, "INCLINATION": 54.6369, "RA_OF_ASC_NODE": 308.6872, "ARG_OF_PERICENTER": 337.1666, "MEAN_ANOMALY": 200.7639, "EPHEMERIS_TYPE": 0, "CLASSIFICATION_TYPE": "U", "NORAD_CAT_ID": 61187, "ELEMENT_SET_NO": 999, "REV_AT_EPOCH": 579, "BSTAR": 0, "MEAN_MOTION_DOT": -9.6e-07, "MEAN_MOTION_DDOT": 0}, "tle": {"line1": "1 61187U 24168C   25347.19938162 -.00000096  00000+0  00000+0 0  9998", "line2": "2 61187  54.6369 308.6872 0002398 337.1666 200.7639  1.86230336  5796"}}, "geometry": {"type": "Point", "coordinates": [118.11072175937802, 14.402674415939021]}}, {"type": "Feature", "properties": {"norad_id": 62339, "name": "GPS BIII-7  (PRN 01)", "group": "gnss", "lat": -45.93418036377724, "lon": -64.89237534533721, "alt_km": 20164.514134054552, "timestamp": "2025-12-14T18:52:55.747484+00:00", "meta": {"OBJECT_NAME": "GPS BIII-7  (PRN 01)", "OBJECT_ID": "2024-242A", "EPOCH": "2025-12-13T08:55:39.244800", "MEAN_MOTION": 2.00567973, "ECCENTRICITY": 0.00122972, "INCLINATION": 54.9234, "RA_OF_ASC_NODE": 341.714, "ARG_OF_PERICENTER": 344.9239, "MEAN_ANOMALY": 12.1981, "EPHEMERIS_TYPE": 0, "CLASSIFICATION_TYPE": "U", "NORAD_CAT_ID": 62339, "ELEMENT_SET_NO": 999, "REV_AT_EPOCH": 752, "BSTAR": 0, "MEAN_MOTION_DOT": -9.1e-07, "MEAN_MOTION_DDOT": 0}, "tle": {"line1": "1 62339U 24242A   25347.37198200 -.00000091  00000+0  00000+0 0  9997", "line2": "2 62339  54.9234 341.7140 0012297 344.9239  12.1981  2.00567973  7522"}}, "geometry": {"type": "Point", "coordinates": [-64.89237534533721, -45.93418036377724]}}, {"type": "Feature", "properties": {"norad_id": 62850, "name": "NVS-02 (IRNSS-1K)", "group": "gnss", "lat": -19.599330969116487, "lon": -144.8462097345687, "alt_km": 19180.11115201508, "timestamp": "2025-12-14T18:52:55.747497+00:00", "meta": {"OBJECT_NAME": "NVS-02 (IRNSS-1K)", "OBJECT_ID": "2025-020A", "EPOCH": "2025-12-13T11:12:45.618624", "MEAN_MOTION": 2.17595237, "ECCENTRICITY": 0.73477952, "INCLINATION": 20.9811, "RA_OF_ASC_NODE": 327.3966, "ARG_OF_PERICENTER": 26.7058, "MEAN_ANOMALY": 357.1842, "EPHEMERIS_TYPE": 0, "CLASSIFICATION_TYPE": "U", "NORAD_CAT_ID": 62850, "ELEMENT_SET_NO": 999, "REV_AT_EPOCH": 693, "BSTAR": 0.00038158892, "MEAN_MOTION_DOT": 4.85e-06, "MEAN_MOTION_DDOT": 0}, "tle": {"line1": "1 62850U 25020A   25347.46719466  .00000485  00000+0  38159-3 0  9999", "line2": "2 62850  20.9811 327.3966 7347795  26.7058 357.1842  2.17595237  6939"}}, "geometry": {"type": "Point", "coordinates": [-144.8462097345687, -19.599330969116487]}}, {"type": "Feature", "properties": {"norad_id": 62876, "name": "QZS-6 (QZSS/PRN 200)", "group": "gnss", "lat": 0.035014505008709645, "lon": 97.43237441795098, "alt_km": 35792.29355277923, "timestamp": "2025-12-14T18:52:55.747511+00:00", "meta": {"OBJECT_NAME": "QZS-6 (QZSS/PRN 200)", "OBJECT_ID": "2025-023A", "EPOCH": "2025-12-13T22:00:38.602080", "MEAN_MOTION": 1.0027433, "ECCENTRICITY": 0.00016272, "INCLINATION": 0.0345, "RA_OF_ASC_NODE": 59.1507, "ARG_OF_PERICENTER": 213.044, "MEAN_ANOMALY": 231.313, "EPHEMERIS_TYPE": 0, "CLASSIFICATION_TYPE": "U", "NORAD_CAT_ID": 62876, "ELEMENT_SET_NO": 999, "REV_AT_EPOCH": 310, "BSTAR": 0, "MEAN_MOTION_DOT": -2.17e-06, "MEAN_MOTION_DDOT": 0}, "tle": {"line1": "1 62876U 25023A   25347.91711345 -.00000217  00000+0  00000+0 0  9992", "line2": "2 62876   0.0345  59.1507 0001627 213.0440 231.3130  1.00274330  3107"}}, "geometry": {"type": "Point", "coordinates": [97.43237441795098, 0.035014505008709645]}}, {"type": "Feature", "properties": {"norad_id": 63130, "name": "COSMOS 2584 (704K)", "group": "gnss", "lat": 43.637345673958244, "lon": 105.48534937255886, "alt_km": 19143.90436252217, "timestamp": "2025-12-14T18:52:55.747522+00:00", "meta": {"OBJECT_NAME": "COSMOS 2584 (704K)", "OBJECT_ID": "2025-042A", "EPOCH": "2025-12-12T20:16:48.196992", "MEAN_MOTION": 2.13103011, "ECCENTRICITY": 0.00076618, "INCLINATION": 64.9761, "RA_OF_ASC_NODE": 79.1423, "ARG_OF_PERICENTER": 217.4089, "MEAN_ANOMALY": 142.5525, "EPHEMERIS_TYPE": 0, "CLASSIFICATION_TYPE": "U", "NORAD_CAT_ID": 63130, "ELEMENT_SET_NO": 999, "REV_AT_EPOCH": 607, "BSTAR": 0, "MEAN_MOTION_DOT": -4.4e-07, "MEAN_MOTION_DDOT": 0}, "tle": {"line1": "1 63130U 25042A   25346.84500228 -.00000044  00000+0  00000+0 0  9992", "line2": "2 63130  64.9761  79.1423 0007661 217.4089 142.5525  2.13103011  6074"}}, "geometry": {"type": "Point", "coordinates": [105.48534937255886, 43.637345673958244]}}]}